{
  "links" : {
    "next" : "https://api.nasa.gov/neo/rest/v1/feed?start_date=2010-12-23&end_date=2010-12-23&detailed=true&api_key=t0TVs3DtDT2H8Oy2Zy8m2eVrNsAVKAexjcZXUckd",
    "prev" : "https://api.nasa.gov/neo/rest/v1/feed?start_date=2010-12-21&end_date=2010-12-21&detailed=true&api_key=t0TVs3DtDT2H8Oy2Zy8m2eVrNsAVKAexjcZXUckd",
    "self" : "https://api.nasa.gov/neo/rest/v1/feed?start_date=2010-12-22&end_date=2010-12-22&detailed=true&api_key=t0TVs3DtDT2H8Oy2Zy8m2eVrNsAVKAexjcZXUckd"
  },
  "element_count" : 6,
  "near_earth_objects" : {
    "2010-12-22" : [ {
      "links" : {
        "self" : "https://api.nasa.gov/neo/rest/v1/neo/3102734?api_key=t0TVs3DtDT2H8Oy2Zy8m2eVrNsAVKAexjcZXUckd"
      },
      "neo_reference_id" : "3102734",
      "name" : "(2001 YM4)",
      "nasa_jpl_url" : "http://ssd.jpl.nasa.gov/sbdb.cgi?sstr=3102734",
      "absolute_magnitude_h" : 19.9,
      "estimated_diameter" : {
        "kilometers" : {
          "estimated_diameter_min" : 0.2783267681,
          "estimated_diameter_max" : 0.6223575734
        },
        "meters" : {
          "estimated_diameter_min" : 278.3267680719,
          "estimated_diameter_max" : 622.3575733667
        },
        "miles" : {
          "estimated_diameter_min" : 0.1729441822,
          "estimated_diameter_max" : 0.3867149477
        },
        "feet" : {
          "estimated_diameter_min" : 913.1455937611,
          "estimated_diameter_max" : 2041.8556210042
        }
      },
      "is_potentially_hazardous_asteroid" : false,
      "close_approach_data" : [ {
        "close_approach_date" : "2010-12-22",
        "epoch_date_close_approach" : 1293004800000,
        "relative_velocity" : {
          "kilometers_per_second" : "14.2128537513",
          "kilometers_per_hour" : "51166.2735046897",
          "miles_per_hour" : "31792.732556289"
        },
        "miss_distance" : {
          "astronomical" : "0.3255897125",
          "lunar" : "126.6543960571",
          "kilometers" : "48707528",
          "miles" : "30265456"
        },
        "orbiting_body" : "Earth"
      } ],
      "orbital_data" : {
        "orbit_id" : "17",
        "orbit_determination_date" : "2017-04-06 09:15:38",
        "orbit_uncertainty" : "0",
        "minimum_orbit_intersection" : ".308928",
        "jupiter_tisserand_invariant" : "3.974",
        "epoch_osculation" : "2458000.5",
        "eccentricity" : ".3894881202826616",
        "semi_major_axis" : "1.720906335018899",
        "inclination" : "26.21190007257594",
        "ascending_node_longitude" : "290.7058736828654",
        "orbital_period" : "824.5828099715636",
        "perihelion_distance" : "1.050633761409864",
        "perihelion_argument" : "96.28732514497443",
        "aphelion_distance" : "2.391178908627935",
        "perihelion_time" : "2457957.399983022266",
        "mean_anomaly" : "18.81679550477106",
        "mean_motion" : ".4365844105001593",
        "equinox" : "J2000"
      }
    }, {
      "links" : {
        "self" : "https://api.nasa.gov/neo/rest/v1/neo/3156302?api_key=t0TVs3DtDT2H8Oy2Zy8m2eVrNsAVKAexjcZXUckd"
      },
      "neo_reference_id" : "3156302",
      "name" : "(2003 LN6)",
      "nasa_jpl_url" : "http://ssd.jpl.nasa.gov/sbdb.cgi?sstr=3156302",
      "absolute_magnitude_h" : 24.6,
      "estimated_diameter" : {
        "kilometers" : {
          "estimated_diameter_min" : 0.0319561887,
          "estimated_diameter_max" : 0.0714562102
        },
        "meters" : {
          "estimated_diameter_min" : 31.9561886721,
          "estimated_diameter_max" : 71.4562101727
        },
        "miles" : {
          "estimated_diameter_min" : 0.0198566489,
          "estimated_diameter_max" : 0.0444008168
        },
        "feet" : {
          "estimated_diameter_min" : 104.8431420431,
          "estimated_diameter_max" : 234.436392583
        }
      },
      "is_potentially_hazardous_asteroid" : false,
      "close_approach_data" : [ {
        "close_approach_date" : "2010-12-22",
        "epoch_date_close_approach" : 1293004800000,
        "relative_velocity" : {
          "kilometers_per_second" : "9.0192087361",
          "kilometers_per_hour" : "32469.1514501074",
          "miles_per_hour" : "20175.0680218737"
        },
        "miss_distance" : {
          "astronomical" : "0.2976549086",
          "lunar" : "115.7877578735",
          "kilometers" : "44528540",
          "miles" : "27668752"
        },
        "orbiting_body" : "Earth"
      } ],
      "orbital_data" : {
        "orbit_id" : "18",
        "orbit_determination_date" : "2017-04-06 09:14:03",
        "orbit_uncertainty" : "2",
        "minimum_orbit_intersection" : ".000579736",
        "jupiter_tisserand_invariant" : "6.868",
        "epoch_osculation" : "2458000.5",
        "eccentricity" : ".2104471082877649",
        "semi_major_axis" : ".8565202681844049",
        "inclination" : ".6361555304629417",
        "ascending_node_longitude" : "215.5036569312556",
        "orbital_period" : "289.5375487683472",
        "perihelion_distance" : ".6762680545551359",
        "perihelion_argument" : "210.7551088662217",
        "aphelion_distance" : "1.036772481813674",
        "perihelion_time" : "2458145.087992890622",
        "mean_anomaly" : "180.2247768483069",
        "mean_motion" : "1.243362049348661",
        "equinox" : "J2000"
      }
    }, {
      "links" : {
        "self" : "https://api.nasa.gov/neo/rest/v1/neo/3724395?api_key=t0TVs3DtDT2H8Oy2Zy8m2eVrNsAVKAexjcZXUckd"
      },
      "neo_reference_id" : "3724395",
      "name" : "(2015 OF22)",
      "nasa_jpl_url" : "http://ssd.jpl.nasa.gov/sbdb.cgi?sstr=3724395",
      "absolute_magnitude_h" : 22.1,
      "estimated_diameter" : {
        "kilometers" : {
          "estimated_diameter_min" : 0.1010543415,
          "estimated_diameter_max" : 0.2259643771
        },
        "meters" : {
          "estimated_diameter_min" : 101.054341542,
          "estimated_diameter_max" : 225.9643771094
        },
        "miles" : {
          "estimated_diameter_min" : 0.0627922373,
          "estimated_diameter_max" : 0.140407711
        },
        "feet" : {
          "estimated_diameter_min" : 331.5431259047,
          "estimated_diameter_max" : 741.3529669956
        }
      },
      "is_potentially_hazardous_asteroid" : false,
      "close_approach_data" : [ {
        "close_approach_date" : "2010-12-22",
        "epoch_date_close_approach" : 1293004800000,
        "relative_velocity" : {
          "kilometers_per_second" : "7.8475649117",
          "kilometers_per_hour" : "28251.2336819423",
          "miles_per_hour" : "17554.2179508713"
        },
        "miss_distance" : {
          "astronomical" : "0.4221821035",
          "lunar" : "164.2288360596",
          "kilometers" : "63157544",
          "miles" : "39244280"
        },
        "orbiting_body" : "Earth"
      } ],
      "orbital_data" : {
        "orbit_id" : "8",
        "orbit_determination_date" : "2017-04-06 08:32:42",
        "orbit_uncertainty" : "6",
        "minimum_orbit_intersection" : ".142919",
        "jupiter_tisserand_invariant" : "4.657",
        "epoch_osculation" : "2458000.5",
        "eccentricity" : ".2230403604750963",
        "semi_major_axis" : "1.413167504602489",
        "inclination" : "16.40040977847547",
        "ascending_node_longitude" : "316.0343942725312",
        "orbital_period" : "613.6050008920388",
        "perihelion_distance" : "1.097974114964257",
        "perihelion_argument" : "49.20691055858805",
        "aphelion_distance" : "1.72836089424072",
        "perihelion_time" : "2457900.502724689774",
        "mean_anomaly" : "58.66806668678916",
        "mean_motion" : ".586696652531586",
        "equinox" : "J2000"
      }
    } ]
  }
}